ONEWEB-0120             
1 47266U 20100J   25327.08371352 -.00000482  00000+0 -13763-2 0  9993
2 47266  87.8946  31.6289 0001822  92.6772 267.4565 13.12448022237693
ONEWEB-0121             
1 47267U 20100K   25326.61479534 -.00000069  00000+0 -22722-3 0  9990
2 47267  87.8965  31.6899 0002014 103.7976 256.3376 13.12443779237541
ONEWEB-0122             
1 47268U 20100L   25326.60979097 -.00000209  00000+0 -61657-3 0  9995
2 47268  87.8963  31.6937 0001940  97.5450 262.5899 13.12443418237456
ONEWEB-0123             
1 47269U 20100M   25327.13871808 -.00000294  00000+0 -85162-3 0  9997
2 47269  87.8957  31.6155 0001707 103.2502 256.8817 13.12442182237662
ONEWEB-0124             
1 47270U 20100N   25327.12736300 -.00000242  00000+0 -70867-3 0  9994
2 47270  87.8960  31.6220 0001916 109.0352 251.0984 13.12441989237543
ONEWEB-0125             
1 47271U 20100P   25327.10465881  .00000435  00000+0  11733-2 0  9994
2 47271  87.8964  31.5885 0001696 110.2369 249.8942 13.12442105237608
ONEWEB-0126             
1 47272U 20100Q   25327.12588133 -.00000169  00000+0 -50548-3 0  9997
2 47272  87.8964  31.6074 0001818 102.8618 257.2713 13.12442059237674
ONEWEB-0127             
1 47273U 20100R   25327.09168606  .00000493  00000+0  13359-2 0  9999
2 47273  87.8962  31.6249 0001824  97.5630 262.5705 13.12443144237696
